*******************************************************************************
Ephemeris / WWW_USER Mon Jul 15 19:00:37 2024 Pasadena, USA      / Horizons    
*******************************************************************************
Target body name: (2018 RP1)                      {source: JPL#4}
Center body name: Earth (399)                     {source: DE441}
Center-site name: Gemini South Obs., Cerro Pachon
*******************************************************************************
Start time      : A.D. 2018-Nov-12 23:23:00.0000 UT      
Stop  time      : A.D. 2018-Nov-13 09:30:00.0000 UT      
Step-size       : 1 minutes
*******************************************************************************
Target pole/equ : undefined
Target radii    : undefined                                                    
Center geodetic : 289.2634, -30.2406227, 2.71233  {E-lon(deg),Lat(deg),Alt(km)}
Center cylindric: 289.2634,5517.21435,-3194.81213 {E-lon(deg),Dxy(km),Dz(km)}
Center pole/equ : ITRF93                          {East-longitude positive}
Center radii    : 6378.137, 6378.137, 6356.752 km {Equator_a, b, pole_c}       
Target primary  : Sun
Vis. interferer : MOON (R_eq= 1737.400) km        {source: DE441}
Rel. light bend : Sun                             {source: DE441}
Rel. lght bnd GM: 1.3271E+11 km^3/s^2                                          
Small-body perts: Yes                             {source: SB441-N16}
Atmos refraction: NO (AIRLESS)
RA format       : HMS
Time format     : CAL 
Calendar mode   : Mixed Julian/Gregorian
RTS-only print  : NO       
EOP file        : eop.240715.p241008                                           
EOP coverage    : DATA-BASED 1962-JAN-20 TO 2024-JUL-15. PREDICTS-> 2024-OCT-07
Units conversion: 1 au= 149597870.700 km, c= 299792.458 km/s, 1 day= 86400.0 s 
Table cut-offs 1: Elevation (-90.0deg=NO ),Airmass (>38.000=NO), Daylight (YES)
Table cut-offs 2: Solar elongation (  0.0,180.0=NO ),Local Hour Angle( 0.0=NO )
Table cut-offs 3: RA/DEC angular rate (     0.0=NO )                           
*******************************************************************************
Initial IAU76/J2000 heliocentric ecliptic osculating elements (au, days, deg.):
  EPOCH=  2458376.5 ! 2018-Sep-15.00 (TDB)         Residual RMS= .12525        
   EC= .3382936082205208   QR= .9576766169446216   TP= 2458412.3293739939      
   OM= 161.903422202901    W=  234.5704247756858   IN= 9.466091569921099       
  Equivalent ICRF heliocentric cartesian coordinates (au, au/d):
   X= 1.017940821946709E+00  Y=-7.278189102440286E-02  Z=-7.249995171787897E-02
  VX=-1.754817228708964E-03 VY= 1.862872143473751E-02 VZ= 4.887370356508847E-03
Asteroid physical parameters (km, seconds, rotational period in hours):        
   GM= n.a.                RAD= n.a.               ROTPER= n.a.                
   H= 24.3                 G= .150                 B-V= n.a.                   
                           ALBEDO= n.a.            STYP= n.a.                  
*******************************************************************************
 Date__(UT)__HR:MN     R.A._________(ICRF)_________DEC
******************************************************
$$SOE
 2018-Nov-13 01:26  m  09 23 33.626637 -21 04 57.54431
 2018-Nov-13 01:27  m  09 23 33.702579 -21 04 57.50374
 2018-Nov-13 01:28  m  09 23 33.778496 -21 04 57.46329
 2018-Nov-13 01:29  m  09 23 33.854387 -21 04 57.42299
 2018-Nov-13 01:30  m  09 23 33.930252 -21 04 57.38281
 2018-Nov-13 01:31  m  09 23 34.006092 -21 04 57.34277
 2018-Nov-13 01:32  m  09 23 34.081906 -21 04 57.30287
 2018-Nov-13 01:33  m  09 23 34.157694 -21 04 57.26310
 2018-Nov-13 01:34  m  09 23 34.233456 -21 04 57.22346
 2018-Nov-13 01:35  m  09 23 34.309192 -21 04 57.18395
 2018-Nov-13 01:36  m  09 23 34.384902 -21 04 57.14458
 2018-Nov-13 01:37  m  09 23 34.460585 -21 04 57.10533
 2018-Nov-13 01:38  m  09 23 34.536242 -21 04 57.06622
 2018-Nov-13 01:39  m  09 23 34.611872 -21 04 57.02724
 2018-Nov-13 01:40  m  09 23 34.687475 -21 04 56.98838
 2018-Nov-13 01:41  m  09 23 34.763052 -21 04 56.94966
 2018-Nov-13 01:42  m  09 23 34.838601 -21 04 56.91106
 2018-Nov-13 01:43  m  09 23 34.914124 -21 04 56.87259
 2018-Nov-13 01:44  m  09 23 34.989619 -21 04 56.83425
 2018-Nov-13 01:45  m  09 23 35.065087 -21 04 56.79603
 2018-Nov-13 01:46  m  09 23 35.140527 -21 04 56.75794
 2018-Nov-13 01:47  m  09 23 35.215940 -21 04 56.71997
 2018-Nov-13 01:48  m  09 23 35.291326 -21 04 56.68213
 2018-Nov-13 01:49  m  09 23 35.366683 -21 04 56.64441
 2018-Nov-13 01:50  m  09 23 35.442013 -21 04 56.60682
 2018-Nov-13 01:51  m  09 23 35.517315 -21 04 56.56935
 2018-Nov-13 01:52  m  09 23 35.592589 -21 04 56.53200
 2018-Nov-13 01:53  m  09 23 35.667835 -21 04 56.49478
 2018-Nov-13 01:54  m  09 23 35.743052 -21 04 56.45767
 2018-Nov-13 01:55  m  09 23 35.818241 -21 04 56.42068
 2018-Nov-13 01:56  m  09 23 35.893402 -21 04 56.38382
 2018-Nov-13 01:57  m  09 23 35.968534 -21 04 56.34707
 2018-Nov-13 01:58  m  09 23 36.043637 -21 04 56.31045
 2018-Nov-13 01:59  m  09 23 36.118712 -21 04 56.27394
 2018-Nov-13 02:00  m  09 23 36.193758 -21 04 56.23754
 2018-Nov-13 02:01  m  09 23 36.268775 -21 04 56.20127
 2018-Nov-13 02:02  m  09 23 36.343762 -21 04 56.16511
 2018-Nov-13 02:03  m  09 23 36.418721 -21 04 56.12907
 2018-Nov-13 02:04  m  09 23 36.493650 -21 04 56.09314
 2018-Nov-13 02:05  m  09 23 36.568550 -21 04 56.05732
 2018-Nov-13 02:06  m  09 23 36.643420 -21 04 56.02162
 2018-Nov-13 02:07  m  09 23 36.718261 -21 04 55.98603
 2018-Nov-13 02:08  m  09 23 36.793072 -21 04 55.95056
 2018-Nov-13 02:09  m  09 23 36.867853 -21 04 55.91519
 2018-Nov-13 02:10  m  09 23 36.942605 -21 04 55.87994
 2018-Nov-13 02:11  m  09 23 37.017326 -21 04 55.84480
 2018-Nov-13 02:12  m  09 23 37.092017 -21 04 55.80977
 2018-Nov-13 02:13  m  09 23 37.166679 -21 04 55.77484
 2018-Nov-13 02:14  m  09 23 37.241310 -21 04 55.74003
 2018-Nov-13 02:15  m  09 23 37.315910 -21 04 55.70532
 2018-Nov-13 02:16  m  09 23 37.390481 -21 04 55.67072
 2018-Nov-13 02:17  m  09 23 37.465020 -21 04 55.63623
 2018-Nov-13 02:18  m  09 23 37.539529 -21 04 55.60184
 2018-Nov-13 02:19  m  09 23 37.614008 -21 04 55.56756
 2018-Nov-13 02:20  m  09 23 37.688455 -21 04 55.53338
 2018-Nov-13 02:21  m  09 23 37.762872 -21 04 55.49931
 2018-Nov-13 02:22  m  09 23 37.837257 -21 04 55.46534
 2018-Nov-13 02:23  m  09 23 37.911612 -21 04 55.43147
 2018-Nov-13 02:24  m  09 23 37.985935 -21 04 55.39771
 2018-Nov-13 02:25  m  09 23 38.060227 -21 04 55.36404
 2018-Nov-13 02:26  m  09 23 38.134488 -21 04 55.33048
 2018-Nov-13 02:27  m  09 23 38.208718 -21 04 55.29702
 2018-Nov-13 02:28  m  09 23 38.282915 -21 04 55.26365
 2018-Nov-13 02:29  m  09 23 38.357082 -21 04 55.23039
 2018-Nov-13 02:30  m  09 23 38.431216 -21 04 55.19722
 2018-Nov-13 02:31  m  09 23 38.505319 -21 04 55.16415
 2018-Nov-13 02:32  m  09 23 38.579390 -21 04 55.13117
 2018-Nov-13 02:33  m  09 23 38.653429 -21 04 55.09830
 2018-Nov-13 02:34  m  09 23 38.727436 -21 04 55.06551
 2018-Nov-13 02:35  m  09 23 38.801411 -21 04 55.03282
 2018-Nov-13 02:36  m  09 23 38.875354 -21 04 55.00023
 2018-Nov-13 02:37  m  09 23 38.949264 -21 04 54.96773
 2018-Nov-13 02:38  m  09 23 39.023142 -21 04 54.93532
 2018-Nov-13 02:39  m  09 23 39.096988 -21 04 54.90300
 2018-Nov-13 02:40  m  09 23 39.170801 -21 04 54.87077
 2018-Nov-13 02:41  m  09 23 39.244582 -21 04 54.83864
 2018-Nov-13 02:42  m  09 23 39.318330 -21 04 54.80659
 2018-Nov-13 02:43  m  09 23 39.392045 -21 04 54.77463
 2018-Nov-13 02:44  m  09 23 39.465727 -21 04 54.74276
 2018-Nov-13 02:45  m  09 23 39.539377 -21 04 54.71098
 2018-Nov-13 02:46  m  09 23 39.612993 -21 04 54.67929
 2018-Nov-13 02:47  m  09 23 39.686577 -21 04 54.64768
 2018-Nov-13 02:48  m  09 23 39.760127 -21 04 54.61616
 2018-Nov-13 02:49  m  09 23 39.833644 -21 04 54.58472
 2018-Nov-13 02:50  m  09 23 39.907128 -21 04 54.55336
 2018-Nov-13 02:51  m  09 23 39.980579 -21 04 54.52209
 2018-Nov-13 02:52  m  09 23 40.053996 -21 04 54.49090
 2018-Nov-13 02:53  m  09 23 40.127379 -21 04 54.45979
 2018-Nov-13 02:54  m  09 23 40.200729 -21 04 54.42877
 2018-Nov-13 02:55  m  09 23 40.274046 -21 04 54.39782
 2018-Nov-13 02:56  m  09 23 40.347329 -21 04 54.36695
 2018-Nov-13 02:57  m  09 23 40.420578 -21 04 54.33617
 2018-Nov-13 02:58  m  09 23 40.493793 -21 04 54.30546
 2018-Nov-13 02:59  m  09 23 40.566974 -21 04 54.27482
 2018-Nov-13 03:00  m  09 23 40.640122 -21 04 54.24427
 2018-Nov-13 03:01  m  09 23 40.713235 -21 04 54.21379
 2018-Nov-13 03:02  m  09 23 40.786314 -21 04 54.18339
 2018-Nov-13 03:03  m  09 23 40.859359 -21 04 54.15306
 2018-Nov-13 03:04  m  09 23 40.932370 -21 04 54.12280
 2018-Nov-13 03:05  m  09 23 41.005347 -21 04 54.09262
 2018-Nov-13 03:06  m  09 23 41.078289 -21 04 54.06251
 2018-Nov-13 03:07  m  09 23 41.151197 -21 04 54.03247
 2018-Nov-13 03:08  m  09 23 41.224070 -21 04 54.00250
 2018-Nov-13 03:09  m  09 23 41.296909 -21 04 53.97261
 2018-Nov-13 03:10  m  09 23 41.369713 -21 04 53.94278
 2018-Nov-13 03:11  m  09 23 41.442483 -21 04 53.91302
 2018-Nov-13 03:12  m  09 23 41.515218 -21 04 53.88333
 2018-Nov-13 03:13  m  09 23 41.587918 -21 04 53.85370
 2018-Nov-13 03:14  m  09 23 41.660583 -21 04 53.82414
 2018-Nov-13 03:15  m  09 23 41.733213 -21 04 53.79465
 2018-Nov-13 03:16  m  09 23 41.805809 -21 04 53.76522
 2018-Nov-13 03:17  m  09 23 41.878369 -21 04 53.73586
 2018-Nov-13 03:18  m  09 23 41.950894 -21 04 53.70656
 2018-Nov-13 03:19  m  09 23 42.023384 -21 04 53.67732
 2018-Nov-13 03:20  m  09 23 42.095840 -21 04 53.64814
 2018-Nov-13 03:21  m  09 23 42.168259 -21 04 53.61903
 2018-Nov-13 03:22  m  09 23 42.240644 -21 04 53.58997
 2018-Nov-13 03:23  m  09 23 42.312993 -21 04 53.56098
 2018-Nov-13 03:24  m  09 23 42.385307 -21 04 53.53204
 2018-Nov-13 03:25  m  09 23 42.457586 -21 04 53.50317
 2018-Nov-13 03:26  m  09 23 42.529828 -21 04 53.47435
 2018-Nov-13 03:27  m  09 23 42.602036 -21 04 53.44558
 2018-Nov-13 03:28  m  09 23 42.674208 -21 04 53.41687
